start=new Date('2023-06-18T00:00:00.000Z').valueOf();
sats=[{"APOAPSIS":"564.279","FILE":"3935891","INCLINATION":"97.6558","EPOCH":"2023-06-17T14:38:09.001824","CENTER_NAME":"EARTH","REV_AT_EPOCH":"4654","MEAN_ANOMALY":"260.0391","CLASSIFICATION_TYPE":"U","SITE":"AFWTR","MEAN_MOTION":"15.01266064","MEAN_ELEMENT_THEORY":"SGP4","ECCENTRICITY":"0.00018530","ARG_OF_PERICENTER":"100.1042","TLE_LINE2":"2 53510  97.6558 289.6907 0001853 100.1042 260.0391 15.01266064 46543","MEAN_MOTION_DOT":"0.00000884","OBJECT_TYPE":"PAYLOAD","NORAD_CAT_ID":"53510","BSTAR":"0.00007338000000","PERIOD":"95.919","MEAN_MOTION_DDOT":"0.0000000000000","EPHEMERIS_TYPE":"0","LAUNCH_DATE":"2022-08-12","COUNTRY_CODE":"US","GP_ID":"234172930","TIME_SYSTEM":"UTC","OBJECT_NAME":"STARLINK-4441","TLE_LINE1":"1 53510U 22099AX  23168.60982641  .00000884  00000-0  73380-4 0  9997","REF_FRAME":"TEME","PERIAPSIS":"561.707","RCS_SIZE":"LARGE","DECAY_DATE":null,"ELEMENT_SET_NO":"999","OBJECT_ID":"2022-099AX","RA_OF_ASC_NODE":"289.6907","SEMIMAJOR_AXIS":"6941.128"},{"PERIOD":"95.438","OBJECT_TYPE":"PAYLOAD","BSTAR":"-0.00000638030000","NORAD_CAT_ID":"53527","ARG_OF_PERICENTER":"81.1516","MEAN_MOTION_DOT":"-0.00000389","TLE_LINE2":"2 53527  53.2153 224.5917 0000930  81.1516 278.9582 15.08833345 45827","ECCENTRICITY":"0.00009300","SITE":"AFETR","MEAN_MOTION":"15.08833345","MEAN_ELEMENT_THEORY":"SGP4","REV_AT_EPOCH":"4582","CLASSIFICATION_TYPE":"U","MEAN_ANOMALY":"278.9582","APOAPSIS":"540.409","EPOCH":"2023-06-17T20:33:12.295584","CENTER_NAME":"EARTH","INCLINATION":"53.2153","FILE":"3935891","SEMIMAJOR_AXIS":"6917.901","OBJECT_ID":"2022-101A","RA_OF_ASC_NODE":"224.5917","DECAY_DATE":null,"RCS_SIZE":"LARGE","ELEMENT_SET_NO":"999","PERIAPSIS":"539.122","REF_FRAME":"TEME","TLE_LINE1":"1 53527U 22101A   23168.85639231 -.00000389  00000-0 -63803-5 0  9992","TIME_SYSTEM":"UTC","OBJECT_NAME":"STARLINK-4511","COUNTRY_CODE":"US","GP_ID":"234172681","EPHEMERIS_TYPE":"0","MEAN_MOTION_DDOT":"0.0000000000000","LAUNCH_DATE":"2022-08-19"},{"MEAN_ELEMENT_THEORY":"SGP4","MEAN_MOTION":"15.08834247","SITE":"AFETR","ECCENTRICITY":"0.00006420","EPOCH":"2023-06-17T20:38:30.123168","CENTER_NAME":"EARTH","INCLINATION":"53.2145","FILE":"3935891","APOAPSIS":"540.207","CLASSIFICATION_TYPE":"U","MEAN_ANOMALY":"277.8488","REV_AT_EPOCH":"4582","PERIOD":"95.438","TLE_LINE2":"2 53528  53.2145 224.5742 0000642  82.2577 277.8488 15.08834247 45829","MEAN_MOTION_DOT":"0.00009054","ARG_OF_PERICENTER":"82.2577","BSTAR":"0.00058631000000","NORAD_CAT_ID":"53528","OBJECT_TYPE":"PAYLOAD","OBJECT_NAME":"STARLINK-4503","TIME_SYSTEM":"UTC","TLE_LINE1":"1 53528U 22101B   23168.86007087  .00009054  00000-0  58631-3 0  9999","LAUNCH_DATE":"2022-08-19","EPHEMERIS_TYPE":"0","MEAN_MOTION_DDOT":"0.0000000000000","GP_ID":"234173431","COUNTRY_CODE":"US","ELEMENT_SET_NO":"999","DECAY_DATE":null,"RCS_SIZE":"LARGE","SEMIMAJOR_AXIS":"6917.898","RA_OF_ASC_NODE":"224.5742","OBJECT_ID":"2022-101B","REF_FRAME":"TEME","PERIAPSIS":"539.319"},{"CLASSIFICATION_TYPE":"U","MEAN_ANOMALY":"271.1019","REV_AT_EPOCH":"4582","EPOCH":"2023-06-17T20:27:54.461088","CENTER_NAME":"EARTH","INCLINATION":"53.2154","FILE":"3935891","APOAPSIS":"540.469","ECCENTRICITY":"0.00009960","MEAN_ELEMENT_THEORY":"SGP4","SITE":"AFETR","MEAN_MOTION":"15.08828603","BSTAR":"-0.00015335000000","NORAD_CAT_ID":"53529","OBJECT_TYPE":"PAYLOAD","TLE_LINE2":"2 53529  53.2154 224.6097 0000996  89.0087 271.1019 15.08828603 45823","MEAN_MOTION_DOT":"-0.00002727","ARG_OF_PERICENTER":"89.0087","PERIOD":"95.438","GP_ID":"234172179","COUNTRY_CODE":"US","LAUNCH_DATE":"2022-08-19","EPHEMERIS_TYPE":"0","MEAN_MOTION_DDOT":"0.0000000000000","TLE_LINE1":"1 53529U 22101C   23168.85271367 -.00002727  00000-0 -15335-3 0  9999","OBJECT_NAME":"STARLINK-4478","TIME_SYSTEM":"UTC","PERIAPSIS":"539.091","REF_FRAME":"TEME","SEMIMAJOR_AXIS":"6917.915","OBJECT_ID":"2022-101C","RA_OF_ASC_NODE":"224.6097","ELEMENT_SET_NO":"999","DECAY_DATE":null,"RCS_SIZE":"LARGE"},{"SITE":"AFETR","MEAN_MOTION":"15.08835642","MEAN_ELEMENT_THEORY":"SGP4","ECCENTRICITY":"0.00010570","APOAPSIS":"540.490","FILE":"3935891","INCLINATION":"53.2145","CENTER_NAME":"EARTH","EPOCH":"2023-06-17T20:18:40.956768","REV_AT_EPOCH":"4582","MEAN_ANOMALY":"266.6388","CLASSIFICATION_TYPE":"U","PERIOD":"95.438","ARG_OF_PERICENTER":"93.4725","MEAN_MOTION_DOT":"-0.00000478","TLE_LINE2":"2 53530  53.2145 224.6370 0001057  93.4725 266.6388 15.08835642 45825","OBJECT_TYPE":"PAYLOAD","NORAD_CAT_ID":"53530","BSTAR":"-0.00001193500000","TIME_SYSTEM":"UTC","OBJECT_NAME":"STARLINK-4482","TLE_LINE1":"1 53530U 22101D   23168.84630737 -.00000478  00000-0 -11935-4 0  9994","MEAN_MOTION_DDOT":"0.0000000000000","EPHEMERIS_TYPE":"0","LAUNCH_DATE":"2022-08-19","COUNTRY_CODE":"US","GP_ID":"234172429","RCS_SIZE":"LARGE","DECAY_DATE":null,"ELEMENT_SET_NO":"999","RA_OF_ASC_NODE":"224.6370","OBJECT_ID":"2022-101D","SEMIMAJOR_AXIS":"6917.894","REF_FRAME":"TEME","PERIAPSIS":"539.027"},{"PERIOD":"95.438","ARG_OF_PERICENTER":"98.2411","MEAN_MOTION_DOT":"-0.00000866","TLE_LINE2":"2 53531  53.2155 224.6247 0000955  98.2411 261.8690 15.08829995 45828","OBJECT_TYPE":"PAYLOAD","NORAD_CAT_ID":"53531","BSTAR":"-0.00003633900000","MEAN_MOTION":"15.08829995","SITE":"AFETR","MEAN_ELEMENT_THEORY":"SGP4","ECCENTRICITY":"0.00009550","APOAPSIS":"540.437","FILE":"3935891","INCLINATION":"53.2155","EPOCH":"2023-06-17T20:22:37.036992","CENTER_NAME":"EARTH","REV_AT_EPOCH":"4582","CLASSIFICATION_TYPE":"U","MEAN_ANOMALY":"261.8690","RCS_SIZE":"LARGE","DECAY_DATE":null,"ELEMENT_SET_NO":"999","RA_OF_ASC_NODE":"224.6247","OBJECT_ID":"2022-101E","SEMIMAJOR_AXIS":"6917.911","REF_FRAME":"TEME","PERIAPSIS":"539.115","TIME_SYSTEM":"UTC","OBJECT_NAME":"STARLINK-4487","TLE_LINE1":"1 53531U 22101E   23168.84903978 -.00000866  00000-0 -36339-4 0  9991","MEAN_MOTION_DDOT":"0.0000000000000","EPHEMERIS_TYPE":"0","LAUNCH_DATE":"2022-08-19","COUNTRY_CODE":"US","GP_ID":"234173181"},{"SITE":"AFETR","MEAN_MOTION":"15.08838001","MEAN_ELEMENT_THEORY":"SGP4","ECCENTRICITY":"0.00011920","APOAPSIS":"540.576","CENTER_NAME":"EARTH","EPOCH":"2023-06-17T21:10:17.838624","FILE":"3935891","INCLINATION":"53.2150","REV_AT_EPOCH":"4583","MEAN_ANOMALY":"281.7460","CLASSIFICATION_TYPE":"U","PERIOD":"95.438","ARG_OF_PERICENTER":"78.3665","MEAN_MOTION_DOT":"0.00000294","TLE_LINE2":"2 53532  53.2150 224.4726 0001192  78.3665 281.7460 15.08838001 45833","OBJECT_TYPE":"PAYLOAD","BSTAR":"0.00003657200000","NORAD_CAT_ID":"53532","TIME_SYSTEM":"UTC","OBJECT_NAME":"STARLINK-4483","TLE_LINE1":"1 53532U 22101F   23168.88215091  .00000294  00000-0  36572-4 0  9990","EPHEMERIS_TYPE":"0","MEAN_MOTION_DDOT":"0.0000000000000","LAUNCH_DATE":"2022-08-19","COUNTRY_CODE":"US","GP_ID":"234172932","DECAY_DATE":null,"RCS_SIZE":"LARGE","ELEMENT_SET_NO":"999","SEMIMAJOR_AXIS":"6917.886","RA_OF_ASC_NODE":"224.4726","OBJECT_ID":"2022-101F","REF_FRAME":"TEME","PERIAPSIS":"538.927"},{"OBJECT_ID":"2022-101G","RA_OF_ASC_NODE":"224.4800","SEMIMAJOR_AXIS":"6917.891","RCS_SIZE":"LARGE","DECAY_DATE":null,"ELEMENT_SET_NO":"999","PERIAPSIS":"539.049","REF_FRAME":"TEME","TLE_LINE1":"1 53533U 22101G   23168.87846940  .00000157  00000-0  27939-4 0  9998","TIME_SYSTEM":"UTC","OBJECT_NAME":"STARLINK-4493","COUNTRY_CODE":"US","GP_ID":"234171680","MEAN_MOTION_DDOT":"0.0000000000000","EPHEMERIS_TYPE":"0","LAUNCH_DATE":"2022-08-19","PERIOD":"95.438","OBJECT_TYPE":"PAYLOAD","NORAD_CAT_ID":"53533","BSTAR":"0.00002793900000","ARG_OF_PERICENTER":"108.7214","TLE_LINE2":"2 53533  53.2161 224.4800 0001023 108.7214 251.3889 15.08836400 45839","MEAN_MOTION_DOT":"0.00000157","ECCENTRICITY":"0.00010230","SITE":"AFETR","MEAN_MOTION":"15.08836400","MEAN_ELEMENT_THEORY":"SGP4","REV_AT_EPOCH":"4583","MEAN_ANOMALY":"251.3889","CLASSIFICATION_TYPE":"U","APOAPSIS":"540.464","FILE":"3935891","INCLINATION":"53.2161","CENTER_NAME":"EARTH","EPOCH":"2023-06-17T21:04:59.756160"},{"ECCENTRICITY":"0.00009140","MEAN_ELEMENT_THEORY":"SGP4","MEAN_MOTION":"15.08834033","SITE":"AFETR","MEAN_ANOMALY":"270.3406","CLASSIFICATION_TYPE":"U","REV_AT_EPOCH":"4577","FILE":"3935891","INCLINATION":"53.2166","EPOCH":"2023-06-17T11:16:47.320032","CENTER_NAME":"EARTH","APOAPSIS":"540.396","PERIOD":"95.438","NORAD_CAT_ID":"53534","BSTAR":"0.00001328400000","OBJECT_TYPE":"PAYLOAD","MEAN_MOTION_DOT":"-0.00000076","TLE_LINE2":"2 53534  53.2166 226.3251 0000914  89.7691 270.3406 15.08834033 45770","ARG_OF_PERICENTER":"89.7691","TLE_LINE1":"1 53534U 22101H   23168.46999213 -.00000076  00000-0  13284-4 0  9995","OBJECT_NAME":"STARLINK-4488","TIME_SYSTEM":"UTC","GP_ID":"234171930","COUNTRY_CODE":"US","LAUNCH_DATE":"2022-08-19","MEAN_MOTION_DDOT":"0.0000000000000","EPHEMERIS_TYPE":"0","RA_OF_ASC_NODE":"226.3251","OBJECT_ID":"2022-101H","SEMIMAJOR_AXIS":"6917.899","ELEMENT_SET_NO":"999","RCS_SIZE":"LARGE","DECAY_DATE":null,"PERIAPSIS":"539.131","REF_FRAME":"TEME"},{"SITE":"AFETR","MEAN_MOTION":"15.08835913","MEAN_ELEMENT_THEORY":"SGP4","ECCENTRICITY":"0.00009880","APOAPSIS":"540.441","CENTER_NAME":"EARTH","EPOCH":"2023-06-17T20:59:42.051264","FILE":"3935891","INCLINATION":"53.2157","REV_AT_EPOCH":"4583","CLASSIFICATION_TYPE":"U","MEAN_ANOMALY":"273.1231","PERIOD":"95.438","ARG_OF_PERICENTER":"86.9874","TLE_LINE2":"2 53535  53.2157 224.5058 0000988  86.9874 273.1231 15.08835913 45831","MEAN_MOTION_DOT":"0.00000445","OBJECT_TYPE":"PAYLOAD","BSTAR":"0.00004601600000","NORAD_CAT_ID":"53535","TIME_SYSTEM":"UTC","OBJECT_NAME":"STARLINK-4138","TLE_LINE1":"1 53535U 22101J   23168.87479226  .00000445  00000-0  46016-4 0  9996","EPHEMERIS_TYPE":"0","MEAN_MOTION_DDOT":"0.0000000000000","LAUNCH_DATE":"2022-08-19","COUNTRY_CODE":"US","GP_ID":"234172682","DECAY_DATE":null,"RCS_SIZE":"LARGE","ELEMENT_SET_NO":"999","SEMIMAJOR_AXIS":"6917.893","OBJECT_ID":"2022-101J","RA_OF_ASC_NODE":"224.5058","REF_FRAME":"TEME","PERIAPSIS":"539.074"}];
